$$SOE
2461302.500000000, A.D. 2026-Sep-19 00:00:00.0000, 3.941549412452298E+08, -1.113527412512333E+08, 3.387327880810624E+07,
2461309.500000000, A.D. 2026-Sep-26 00:00:00.0000, 3.977627873460371E+08, -1.015997480209535E+08, 3.261699939455052E+07,
2461316.500000000, A.D. 2026-Oct-03 00:00:00.0000, 4.010942047819198E+08, -9.177616497909363E+07, 3.133804882132752E+07,
2461323.500000000, A.D. 2026-Oct-10 00:00:00.0000, 4.041485453216993E+08, -8.188920355066383E+07, 3.003744636282054E+07,
2461330.500000000, A.D. 2026-Oct-17 00:00:00.0000, 4.069253204315092E+08, -7.194602527584037E+07, 2.871621114845433E+07,
2461337.500000000, A.D. 2026-Oct-24 00:00:00.0000, 4.094241972075602E+08, -6.195374054880157E+07, 2.737536179100300E+07,
2461344.500000000, A.D. 2026-Oct-31 00:00:00.0000, 4.116449945440207E+08, -5.191940767990883E+07, 2.601591602387360E+07,
2461351.500000000, A.D. 2026-Nov-07 00:00:00.0000, 4.135876798778468E+08, -4.185003219765622E+07, 2.463889032105792E+07,
2461358.500000000, A.D. 2026-Nov-14 00:00:00.0000, 4.152523667110898E+08, -3.175256549227641E+07, 2.324529955215488E+07,
2461365.500000000, A.D. 2026-Nov-21 00:00:00.0000, 4.166393111002516E+08, -2.163390210730640E+07, 2.183615689322548E+07,
2461372.500000000, A.D. 2026-Nov-28 00:00:00.0000, 4.177489061170250E+08, -1.150087867815975E+07, 2.041247383811567E+07,
2461379.500000000, A.D. 2026-Dec-05 00:00:00.0000, 4.185816778975663E+08, -1.360275165529265E+06, 1.897525992266937E+07,
2461386.500000000, A.D. 2026-Dec-12 00:00:00.0000, 4.191382834415627E+08, 8.781184738260522E+06, 1.752552239917350E+07,
2461393.500000000, A.D. 2026-Dec-19 00:00:00.0000, 4.194195082724926E+08, 1.891683404711312E+07, 1.606426603347363E+07,
2461400.500000000, A.D. 2026-Dec-26 00:00:00.0000, 4.194262638158781E+08, 2.904006290468725E+07, 1.459249296580583E+07,
2461407.500000000, A.D. 2027-Jan-02 00:00:00.0000, 4.191595847699407E+08, 3.914431881144056E+07, 1.311120259331769E+07,
2461414.500000000, A.D. 2027-Jan-09 00:00:00.0000, 4.186206265835486E+08, 4.922310668368921E+07, 1.162139146406356E+07,
2461421.500000000, A.D. 2027-Jan-16 00:00:00.0000, 4.178106630742244E+08, 5.926998876148783E+07, 1.012405317882767E+07,
2461428.500000000, A.D. 2027-Jan-23 00:00:00.0000, 4.167310842294257E+08, 6.927858433331263E+07, 8.620178292198364E+06,
2461435.500000000, A.D. 2027-Jan-30 00:00:00.0000, 4.153833943759058E+08, 7.924256923660861E+07, 7.110754190572117E+06,
2461442.500000000, A.D. 2027-Feb-06 00:00:00.0000, 4.137692111375695E+08, 8.915567548002675E+07, 5.596764934494954E+06,
2461449.500000000, A.D. 2027-Feb-13 00:00:00.0000, 4.118902647151468E+08, 9.901169221383420E+07, 4.079191205874212E+06,
2461456.500000000, A.D. 2027-Feb-20 00:00:00.0000, 4.097483951208393E+08, 1.088044672665560E+08, 2.559010511453047E+06,
2461463.500000000, A.D. 2027-Feb-27 00:00:00.0000, 4.073455487646861E+08, 1.185279060403892E+08, 1.037197250903815E+06,
2461470.500000000, A.D. 2027-Mar-06 00:00:00.0000, 4.046837774073912E+08, 1.281759696918836E+08, -4.852774717101529E+05,
2461477.500000000, A.D. 2027-Mar-13 00:00:00.0000, 4.017652378745744E+08, 1.377426746531855E+08, -2.007445980107963E+06,
2461484.500000000, A.D. 2027-Mar-20 00:00:00.0000, 3.985921914003111E+08, 1.472220926655867E+08, -3.528344067224503E+06,
2461491.500000000, A.D. 2027-Mar-27 00:00:00.0000, 3.951670027999144E+08, 1.566083507822534E+08, -5.047011010277160E+06,
2461498.500000000, A.D. 2027-Apr-03 00:00:00.0000, 3.914921396726364E+08, 1.658956312978853E+08, -6.562489582950540E+06,
2461505.500000000, A.D. 2027-Apr-10 00:00:00.0000, 3.875701716931464E+08, 1.750781716337638E+08, -8.073826069359384E+06,
2461512.500000000, A.D. 2027-Apr-17 00:00:00.0000, 3.834037700114822E+08, 1.841502641693292E+08, -9.580070283862591E+06,
2461519.500000000, A.D. 2027-Apr-24 00:00:00.0000, 3.789957068386055E+08, 1.931062559637036E+08, -1.108027560992605E+07,
2461526.500000000, A.D. 2027-May-01 00:00:00.0000, 3.743488555156750E+08, 2.019405484002823E+08, -1.257349908415815E+07,
2461533.500000000, A.D. 2027-May-08 00:00:00.0000, 3.694661913722151E+08, 2.106475975067014E+08, -1.405880149357456E+07,
2461540.500000000, A.D. 2027-May-15 00:00:00.0000, 3.643507918713238E+08, 2.192219159077741E+08, -1.553524727162197E+07,
2461547.500000000, A.D. 2027-May-22 00:00:00.0000, 3.590058344757959E+08, 2.276580738276469E+08, -1.700190426181288E+07,
2461554.500000000, A.D. 2027-May-29 00:00:00.0000, 3.534345955932717E+08, 2.359506976784374E+08, -1.845784377789120E+07,
2461561.500000000, A.D. 2027-Jun-05 00:00:00.0000, 3.476404514829304E+08, 2.440944693682942E+08, -1.990214078692409E+07,
2461568.500000000, A.D. 2027-Jun-12 00:00:00.0000, 3.416268791107292E+08, 2.520841267626669E+08, -2.133387399657759E+07,
2461575.500000000, A.D. 2027-Jun-19 00:00:00.0000, 3.353974566165103E+08, 2.599144643670717E+08, -2.275212589303076E+07,
2461582.500000000, A.D. 2027-Jun-26 00:00:00.0000, 3.289558636665890E+08, 2.675803339748526E+08, -2.415598277674109E+07,
2461589.500000000, A.D. 2027-Jul-03 00:00:00.0000, 3.223058818192476E+08, 2.750766452950614E+08, -2.554453480771697E+07,
2461596.500000000, A.D. 2027-Jul-10 00:00:00.0000, 3.154513949375097E+08, 2.823983665769987E+08, -2.691687606341122E+07,
2461603.500000000, A.D. 2027-Jul-17 00:00:00.0000, 3.083963896847327E+08, 2.895405251997207E+08, -2.827210461648533E+07,
2461610.500000000, A.D. 2027-Jul-24 00:00:00.0000, 3.011449562588359E+08, 2.964982081696213E+08, -2.960932265286848E+07,
2461617.500000000, A.D. 2027-Jul-31 00:00:00.0000, 2.937012897755525E+08, 3.032665627664397E+08, -3.092763664968766E+07,
2461624.500000000, A.D. 2027-Aug-07 00:00:00.0000, 2.860696920974361E+08, 3.098407984920506E+08, -3.222615750158584E+07,
2461631.500000000, A.D. 2027-Aug-14 00:00:00.0000, 2.782545718006058E+08, 3.162161900706359E+08, -3.350400040541807E+07,
2461638.500000000, A.D. 2027-Aug-21 00:00:00.0000, 2.702604428914100E+08, 3.223880781435704E+08, -3.476028483547312E+07,
2461645.500000000, A.D. 2027-Aug-28 00:00:00.0000, 2.620919257028409E+08, 3.283518688695156E+08, -3.599413482716250E+07,
2461652.500000000, A.D. 2027-Sep-04 00:00:00.0000, 2.537537487852701E+08, 3.341030349352112E+08, -3.720467925755061E+07,
2461659.500000000, A.D. 2027-Sep-11 00:00:00.0000, 2.452507503898626E+08, 3.396371173200825E+08, -3.839105204969394E+07,
2461666.500000000, A.D. 2027-Sep-18 00:00:00.0000, 2.365878796722766E+08, 3.449497271703476E+08, -3.955239236727920E+07,
2461673.500000000, A.D. 2027-Sep-25 00:00:00.0000, 2.277701978401646E+08, 3.500365477110698E+08, -4.068784482818516E+07,
2461680.500000000, A.D. 2027-Oct-02 00:00:00.0000, 2.188028793139207E+08, 3.548933362298353E+08, -4.179655974293481E+07,
2461687.500000000, A.D. 2027-Oct-09 00:00:00.0000, 2.096912129171713E+08, 3.595159261337683E+08, -4.287769338181619E+07,
2461694.500000000, A.D. 2027-Oct-16 00:00:00.0000, 2.004406031538202E+08, 3.639002290314247E+08, -4.393040828230873E+07,
2461701.500000000, A.D. 2027-Oct-23 00:00:00.0000, 1.910565718249250E+08, 3.680422368408049E+08, -4.495387362256114E+07,
2461708.500000000, A.D. 2027-Oct-30 00:00:00.0000, 1.815447603540216E+08, 3.719380245412735E+08, -4.594726564714304E+07,
2461715.500000000, A.D. 2027-Nov-06 00:00:00.0000, 1.719109316517660E+08, 3.755837547027246E+08, -4.690976794782136E+07,
2461722.500000000, A.D. 2027-Nov-13 00:00:00.0000, 1.621609695248601E+08, 3.789756817181669E+08, -4.784057158737493E+07,
2461729.500000000, A.D. 2027-Nov-20 00:00:00.0000, 1.523008785205419E+08, 3.821101535618442E+08, -4.873887551221623E+07,
2461736.500000000, A.D. 2027-Nov-27 00:00:00.0000, 1.423367858181150E+08, 3.849836140455577E+08, -4.960388716203627E+07,
2461743.500000000, A.D. 2027-Dec-04 00:00:00.0000, 1.322749431353857E+08, 3.875926064898091E+08, -5.043482301710491E+07,
2461750.500000000, A.D. 2027-Dec-11 00:00:00.0000, 1.221217280875938E+08, 3.899337778487116E+08, -5.123090911185502E+07,
2461757.500000000, A.D. 2027-Dec-18 00:00:00.0000, 1.118836452610816E+08, 3.920038829539684E+08, -5.199138156826460E+07,
2461764.500000000, A.D. 2027-Dec-25 00:00:00.0000, 1.015673271403225E+08, 3.937997888809792E+08, -5.271548716403279E+07,
2461771.500000000, A.D. 2028-Jan-01 00:00:00.0000, 9.117953491589786E+07, 3.953184794575235E+08, -5.340248393934569E+07,
$$EOE